INTELSAT 902 (IS-902)   
1 26900U 01039A   26176.51502705 -.00000279  00000+0  00000+0 0  9994
2 26900   6.1373  71.6819 0004225  22.8132 314.4640  1.00271919 90777
INTELSAT 904 (IS-904)   
1 27380U 02007A   26176.57569770 -.00000221  00000+0  00000+0 0  9991
2 27380   6.9409  69.0858 0006537  10.0558  10.3274  1.00273321 51851
DIRECTV 5 (TEMPO 1)     
1 27426U 02023A   26176.36055021 -.00000052  00000+0  00000+0 0  9998
2 27426   4.8988  75.2126 0003505  23.2638 194.7207  1.00272979 88205
INTELSAT 905 (IS-905)   
1 27438U 02027A   26176.41711499  .00000096  00000+0  00000+0 0  9996
2 27438   6.7745  69.7029 0005068  16.9217 199.8951  1.00293519 51449
GALAXY 3C (G-3C)        
1 27445U 02030A   26176.03978844 -.00000146  00000+0  00000+0 0  9992
2 27445   3.7528  77.8806 0001934  27.0363  87.7469  1.00272136 46578
INTELSAT 906 (IS-906)   
1 27513U 02041A   26176.18122740  .00000017  00000+0  00000+0 0  9998
2 27513   5.8222  72.8229 0004258   5.8574 324.0267  1.00271821 87109
GALAXY 13 (HORIZONS-1)  
1 27954U 03044A   26176.54558626  .00000142  00000+0  00000+0 0  9996
2 27954   1.4402  83.7574 0001733   0.4297 235.9091  1.00269364 46651
INTELSAT 10-02          
1 28358U 04022A   26176.38221698 -.00000001  00000+0  00000+0 0  9995
2 28358   0.0268 285.1354 0000282 208.0196 276.9642  1.00273298 80635
DIRECTV 8               
1 28659U 05019A   26176.50142031  .00000011  00000+0  00000+0 0  9993
2 28659   0.0177  64.4645 0003211  33.9330 236.7038  1.00270952 77159
GALAXY 28 (G-28)        
1 28702U 05022A   26176.37701696 -.00000193  00000+0  00000+0 0  9991
2 28702   3.3189  78.8326 0002307  13.5338 289.7814  1.00271390 52058
GALAXY 16 (G-16)        
1 29236U 06023A   26176.50532034 -.00000117  00000+0  00000+0 0  9995
2 29236   0.0420 134.9740 0002859 306.5185 275.0532  1.00272142 73058
DIRECTV 9S              
1 29494U 06043A   26176.50488699 -.00000105  00000+0  00000+0 0  9997
2 29494   2.4424  80.8122 0005359  17.6702 255.7165  1.00271770 51464
GALAXY 17 (G-17)        
1 31307U 07016B   26176.50809368 -.00000199  00000+0  00000+0 0  9997
2 31307   2.9931  79.8023 0004540  18.1719 273.5770  1.00271571 69885
INTELSAT 11 (IS-11)     
1 32253U 07044B   26176.15962497 -.00000013  00000+0  00000+0 0  9998
2 32253   3.5864  78.5794 0002922  84.1600 258.8083  0.99048006 68528
HORIZONS-2              
1 32388U 07063B   26176.51034703 -.00000245  00000+0  00000+0 0  9995
2 32388   2.6236  80.5312 0004135   5.0731 297.9685  1.00271711 67899
DIRECTV 11              
1 32729U 08013A   26176.50532034 -.00000115  00000+0  00000+0 0  9995
2 32729   0.0129 247.1513 0000354 192.1954 277.0256  1.00271331 45672
GALAXY 18 (G-18)        
1 32951U 08024A   26176.50064031  .00000000  00000+0  00000+0 0  9993
2 32951   0.0242   5.0549 0003214  92.4566 233.3677  1.00269192 45937
GALAXY 19 (G-19)        
1 33376U 08045A   26176.50575367 -.00000129  00000+0  00000+0 0  9990
2 33376   0.0445 260.5034 0002810 202.0976 256.1150  1.00270817 64987
FM-5                    
1 35493U 09034A   26176.36531690 -.00000190  00000+0  00000+0 0  9994
2 35493   0.0203 294.4204 0000738  45.0543 339.3759  1.00270339 46728
INTELSAT 14 (IS-14)     
1 36097U 09064A   26176.37346360 -.00000264  00000+0  00000+0 0  9999
2 36097   0.0177   7.5777 0002607  84.7183 270.6608  1.00272408 60684
INTELSAT 15 (IS-15)     
1 36106U 09067A   26176.54170663 -.00000175  00000+0  00000+0 0  9994
2 36106   0.0130  29.1422 0002497  68.4736  96.2280  1.00271734 41319
DIRECTV 12              
1 36131U 09075A   26176.50462699 -.00000093  00000+0  00000+0 0  9999
2 36131   0.0372 153.7847 0000263 348.7482 210.0484  1.00271037 46639
INTELSAT 16 (IS-16)     
1 36397U 10006A   26176.36731024 -.00000235  00000+0  00000+0 0  9992
2 36397   0.0098  23.0120 0002381  86.6165 219.9025  1.00271091 59734
XM-5                    
1 37185U 10053A   26176.50220031 -.00000013  00000+0  00000+0 0  9991
2 37185   0.0617 272.1965 0002678 281.8942 145.1396  1.00271055 57562
INTELSAT 17 (IS-17)     
1 37238U 10065B   26176.53806662  .00000009  00000+0  00000+0 0  9990
2 37238   0.0401 147.0669 0002799 306.9730  79.3297  1.00272244 53331
INTELSAT 28 (IS-28)     
1 37392U 11016A   26176.37606361 -.00000216  00000+0  00000+0 0  9995
2 37392   1.8275  82.5305 0003970  10.4749 284.1611  1.00271672 53362
INTELSAT 18 (IS-18)     
1 37834U 11056A   26176.41807550  .00000063  00000+0  00000+0 0  9997
2 37834   0.0186 291.0324 0002033 166.3252 146.6946  1.00272659 53899
INTELSAT 22 (IS-22)     
1 38098U 12011A   26176.53927995  .00000000  00000+0  00000+0 0  9992
2 38098   0.0346  50.7061 0001994  85.8313  43.3858  1.00270653  7274
INTELSAT 19 (IS-19)     
1 38356U 12030A   26175.81850399 -.00000047  00000+0  00000+0 0  9995
2 38356   0.0179   1.9960 0003321  99.4834 272.1565  1.00273280 50528
INTELSAT 20 (IS-20)     
1 38740U 12043A   26175.87197582  .00000000  00000+0  00000+0 0  9998
2 38740   0.0375  69.0879 0002337 110.0778 116.2550  1.00271269 50820
INTELSAT 21 (IS-21)     
1 38749U 12045A   26176.37086359 -.00000275  00000+0  00000+0 0  9999
2 38749   0.0215  65.9228 0001778  42.3683 240.7282  1.00270899 50604
