OBJECT_NAME,OBJECT_ID,EPOCH,MEAN_MOTION,ECCENTRICITY,INCLINATION,RA_OF_ASC_NODE,ARG_OF_PERICENTER,MEAN_ANOMALY,EPHEMERIS_TYPE,CLASSIFICATION_TYPE,NORAD_CAT_ID,ELEMENT_SET_NO,REV_AT_EPOCH,BSTAR,MEAN_MOTION_DOT,MEAN_MOTION_DDOT
INTELSAT 902 (IS-902),2001-039A,2026-06-25T12:21:38.337120,1.00271919,.00042253,6.1373,71.6819,22.8132,314.4640,0,U,26900,999,9077,0,-.279E-5,0
INTELSAT 904 (IS-904),2002-007A,2026-06-25T13:49:00.281280,1.00273321,.00065378,6.9409,69.0858,10.0558,10.3274,0,U,27380,999,5185,0,-.221E-5,0
DIRECTV 5 (TEMPO 1),2002-023A,2026-06-25T08:39:11.538144,1.00272979,.00035052,4.8988,75.2126,23.2638,194.7207,0,U,27426,999,8820,0,-.52E-6,0
INTELSAT 905 (IS-905),2002-027A,2026-06-25T10:00:38.735136,1.00293519,.00050683,6.7745,69.7029,16.9217,199.8951,0,U,27438,999,5144,0,.96E-6,0
GALAXY 3C (G-3C),2002-030A,2026-06-25T00:57:17.721216,1.00272136,.00019343,3.7528,77.8806,27.0363,87.7469,0,U,27445,999,4657,0,-.146E-5,0
INTELSAT 906 (IS-906),2002-041A,2026-06-25T04:20:58.047360,1.00271821,.00042584,5.8222,72.8229,5.8574,324.0267,0,U,27513,999,8710,0,.17E-6,0
GALAXY 13 (HORIZONS-1),2003-044A,2026-06-25T13:05:38.652864,1.00269364,.00017333,1.4402,83.7574,0.4297,235.9091,0,U,27954,999,4665,0,.142E-5,0
INTELSAT 10-02,2004-022A,2026-06-25T09:10:23.547072,1.00273298,.0000282,0.0268,285.1354,208.0196,276.9642,0,U,28358,999,8063,0,-.1E-7,0
DIRECTV 8,2005-019A,2026-06-25T12:02:02.714784,1.00270952,.00032114,0.0177,64.4645,33.9330,236.7038,0,U,28659,999,7715,0,.11E-6,0
GALAXY 28 (G-28),2005-022A,2026-06-25T09:02:54.265344,1.00271390,.00023071,3.3189,78.8326,13.5338,289.7814,0,U,28702,999,5205,0,-.193E-5,0
GALAXY 16 (G-16),2006-023A,2026-06-25T12:07:39.677376,1.00272142,.00028597,0.0420,134.9740,306.5185,275.0532,0,U,29236,999,7305,0,-.117E-5,0
DIRECTV 9S,2006-043A,2026-06-25T12:07:02.235936,1.00271770,.00053591,2.4424,80.8122,17.6702,255.7165,0,U,29494,999,5146,0,-.105E-5,0
GALAXY 17 (G-17),2007-016B,2026-06-25T12:11:39.293952,1.00271571,.000454,2.9931,79.8023,18.1719,273.5770,0,U,31307,999,6988,0,-.199E-5,0
INTELSAT 11 (IS-11),2007-044B,2026-06-25T03:49:51.597408,0.99048006,.00029223,3.5864,78.5794,84.1600,258.8083,0,U,32253,999,6852,0,-.13E-6,0
HORIZONS-2,2007-063B,2026-06-25T12:14:53.983392,1.00271711,.00041357,2.6236,80.5312,5.0731,297.9685,0,U,32388,999,6789,0,-.245E-5,0
DIRECTV 11,2008-013A,2026-06-25T12:07:39.677376,1.00271331,.00003549,0.0129,247.1513,192.1954,277.0256,0,U,32729,999,4567,0,-.115E-5,0
GALAXY 18 (G-18),2008-024A,2026-06-25T12:00:55.322784,1.00269192,.00032149,0.0242,5.0549,92.4566,233.3677,0,U,32951,999,4593,0,0,0
GALAXY 19 (G-19),2008-045A,2026-06-25T12:08:17.117088,1.00270817,.000281,0.0445,260.5034,202.0976,256.1150,0,U,33376,999,6498,0,-.129E-5,0
FM-5,2009-034A,2026-06-25T08:46:03.380160,1.00270339,.00007381,0.0203,294.4204,45.0543,339.3759,0,U,35493,999,4672,0,-.19E-5,0
INTELSAT 14 (IS-14),2009-064A,2026-06-25T08:57:47.255040,1.00272408,.00026073,0.0177,7.5777,84.7183,270.6608,0,U,36097,999,6068,0,-.264E-5,0
INTELSAT 15 (IS-15),2009-067A,2026-06-25T13:00:03.452832,1.00271734,.0002497,0.0130,29.1422,68.4736,96.2280,0,U,36106,999,4131,0,-.175E-5,0
DIRECTV 12,2009-075A,2026-06-25T12:06:39.771936,1.00271037,.00002631,0.0372,153.7847,348.7482,210.0484,0,U,36131,999,4663,0,-.93E-6,0
INTELSAT 16 (IS-16),2010-006A,2026-06-25T08:48:55.604736,1.00271091,.00023813,0.0098,23.0120,86.6165,219.9025,0,U,36397,999,5973,0,-.235E-5,0
XM-5,2010-053A,2026-06-25T12:03:10.106784,1.00271055,.00026783,0.0617,272.1965,281.8942,145.1396,0,U,37185,999,5756,0,-.13E-6,0
INTELSAT 17 (IS-17),2010-065B,2026-06-25T12:54:48.955968,1.00272244,.00027996,0.0401,147.0669,306.9730,79.3297,0,U,37238,999,5333,0,.9E-7,0
INTELSAT 28 (IS-28),2011-016A,2026-06-25T09:01:31.895904,1.00271672,.00039709,1.8275,82.5305,10.4749,284.1611,0,U,37392,999,5336,0,-.216E-5,0
INTELSAT 18 (IS-18),2011-056A,2026-06-25T10:02:01.723200,1.00272659,.00020332,0.0186,291.0324,166.3252,146.6946,0,U,37834,999,5389,0,.63E-6,0
INTELSAT 22 (IS-22),2012-011A,2026-06-25T12:56:33.787680,1.00270653,.00019949,0.0346,50.7061,85.8313,43.3858,0,U,38098,999,727,0,0,0
INTELSAT 19 (IS-19),2012-030A,2026-06-24T19:38:38.744736,1.00273280,.00033211,0.0179,1.9960,99.4834,272.1565,0,U,38356,999,5052,0,-.47E-6,0
INTELSAT 20 (IS-20),2012-043A,2026-06-24T20:55:38.710848,1.00271269,.00023379,0.0375,69.0879,110.0778,116.2550,0,U,38740,999,5082,0,0,0
INTELSAT 21 (IS-21),2012-045A,2026-06-25T08:54:02.614176,1.00270899,.00017788,0.0215,65.9228,42.3683,240.7282,0,U,38749,999,5060,0,-.275E-5,0
